{"type": "FeatureCollection", "features": [ {"type": "Feature", "properties": {"norad_id": 34590, "name": "COSMOS 2251 DEB", "group": "cosmos-2251-debris", "lat": -2.769049808206774, "lon": -19.018227325219797, "alt_km": 734.734640000167, "timestamp": "2025-12-02T13:52:17.656030+00:00", "meta": {"OBJECT_NAME": "COSMOS 2251 DEB", "OBJECT_ID": "1993-036WC", "EPOCH": "2025-12-02T02:37:13.511424", "MEAN_MOTION": 14.54805908, "ECCENTRICITY": 0.00680833, "INCLINATION": 74.0436, "RA_OF_ASC_NODE": 342.6611, "ARG_OF_PERICENTER": 115.3761, "MEAN_ANOMALY": 308.3248, "EPHEMERIS_TYPE": 0, "CLASSIFICATION_TYPE": "U", "NORAD_CAT_ID": 34590, "ELEMENT_SET_NO": 999, "REV_AT_EPOCH": 88966, "BSTAR": 0.00014019827, "MEAN_MOTION_DOT": 5.9e-06, "MEAN_MOTION_DDOT": 0}, "tle": {"line1": "1 34590U 93036WC  25336.10918416  .00000590  00000+0  14020-3 0  9994", "line2": "2 34590  74.0436 342.6611 0068083 115.3761 308.3248 14.54805908889668"}}, "geometry": {"type": "Point", "coordinates": [-19.018227325219797, -2.769049808206774]}}, {"type": "Feature", "properties": {"norad_id": 34609, "name": "COSMOS 2251 DEB", "group": "cosmos-2251-debris", "lat": -66.73163556983273, "lon": -11.932342775134016, "alt_km": 830.9717573776616, "timestamp": "2025-12-02T13:52:17.656040+00:00", "meta": {"OBJECT_NAME": "COSMOS 2251 DEB", "OBJECT_ID": "1993-036WE", "EPOCH": "2025-12-01T09:47:24.508320", "MEAN_MOTION": 14.21729086, "ECCENTRICITY": 0.01444513, "INCLINATION": 73.7303, "RA_OF_ASC_NODE": 127.4301, "ARG_OF_PERICENTER": 348.7927, "MEAN_ANOMALY": 39.6544, "EPHEMERIS_TYPE": 0, "CLASSIFICATION_TYPE": "U", "NORAD_CAT_ID": 34609, "ELEMENT_SET_NO": 999, "REV_AT_EPOCH": 86471, "BSTAR": 0.00076178373, "MEAN_MOTION_DOT": 1.834e-05, "MEAN_MOTION_DDOT": 0}, "tle": {"line1": "1 34609U 93036WE  25335.40792255  .00001834  00000+0  76178-3 0  9992", "line2": "2 34609  73.7303 127.4301 0144451 348.7927  39.6544 14.21729086864711"}}, "geometry": {"type": "Point", "coordinates": [-11.932342775134016, -66.73163556983273]}}, {"type": "Feature", "properties": {"norad_id": 34610, "name": "COSMOS 2251 DEB", "group": "cosmos-2251-debris", "lat": -56.624838847252136, "lon": 125.92347841414521, "alt_km": 1006.0040878878435, "timestamp": "2025-12-02T13:52:17.656050+00:00", "meta": {"OBJECT_NAME": "COSMOS 2251 DEB", "OBJECT_ID": "1993-036WF", "EPOCH": "2025-12-02T05:54:49.499136", "MEAN_MOTION": 14.06923828, "ECCENTRICITY": 0.01799919, "INCLINATION": 74.0187, "RA_OF_ASC_NODE": 280.718, "ARG_OF_PERICENTER": 53.6294, "MEAN_ANOMALY": 308.1299, "EPHEMERIS_TYPE": 0, "CLASSIFICATION_TYPE": "U", "NORAD_CAT_ID": 34610, "ELEMENT_SET_NO": 999, "REV_AT_EPOCH": 85412, "BSTAR": 0.0026726294, "MEAN_MOTION_DOT": 5.142e-05, "MEAN_MOTION_DDOT": 0}, "tle": {"line1": "1 34610U 93036WF  25336.24640624  .00005142  00000+0  26726-2 0  9998", "line2": "2 34610  74.0187 280.7180 0179991  53.6294 308.1299 14.06923828854129"}}, "geometry": {"type": "Point", "coordinates": [125.92347841414521, -56.624838847252136]}}, {"type": "Feature", "properties": {"norad_id": 34611, "name": "COSMOS 2251 DEB", "group": "cosmos-2251-debris", "lat": 3.0807603522724607, "lon": -60.25621509813113, "alt_km": 649.3492826751299, "timestamp": "2025-12-02T13:52:17.656060+00:00", "meta": {"OBJECT_NAME": "COSMOS 2251 DEB", "OBJECT_ID": "1993-036WG", "EPOCH": "2025-12-02T05:11:03.093792", "MEAN_MOTION": 14.69146948, "ECCENTRICITY": 0.00241114, "INCLINATION": 74.0519, "RA_OF_ASC_NODE": 121.3255, "ARG_OF_PERICENTER": 166.3217, "MEAN_ANOMALY": 256.6389, "EPHEMERIS_TYPE": 0, "CLASSIFICATION_TYPE": "U", "NORAD_CAT_ID": 34611, "ELEMENT_SET_NO": 999, "REV_AT_EPOCH": 88236, "BSTAR": 0.0016961226, "MEAN_MOTION_DOT": 0.00010005, "MEAN_MOTION_DDOT": 0}, "tle": {"line1": "1 34611U 93036WG  25336.21600803  .00010005  00000+0  16961-2 0  9995", "line2": "2 34611  74.0519 121.3255 0024111 166.3217 256.6389 14.69146948882365"}}, "geometry": {"type": "Point", "coordinates": [-60.25621509813113, 3.0807603522724607]}}, {"type": "Feature", "properties": {"norad_id": 34613, "name": "COSMOS 2251 DEB", "group": "cosmos-2251-debris", "lat": 30.71017722891812, "lon": -53.158656878772625, "alt_km": 813.9543955349309, "timestamp": "2025-12-02T13:52:17.656071+00:00", "meta": {"OBJECT_NAME": "COSMOS 2251 DEB", "OBJECT_ID": "1993-036WJ", "EPOCH": "2025-12-02T07:34:22.310400", "MEAN_MOTION": 14.26333294, "ECCENTRICITY": 0.01101582, "INCLINATION": 73.9632, "RA_OF_ASC_NODE": 297.4805, "ARG_OF_PERICENTER": 132.0506, "MEAN_ANOMALY": 354.3139, "EPHEMERIS_TYPE": 0, "CLASSIFICATION_TYPE": "U", "NORAD_CAT_ID": 34613, "ELEMENT_SET_NO": 999, "REV_AT_EPOCH": 86314, "BSTAR": 0.0014618607, "MEAN_MOTION_DOT": 3.72e-05, "MEAN_MOTION_DDOT": 0}, "tle": {"line1": "1 34613U 93036WJ  25336.31553600  .00003720  00000+0  14619-2 0  9994", "line2": "2 34613  73.9632 297.4805 0110158 132.0506 354.3139 14.26333294863144"}}, "geometry": {"type": "Point", "coordinates": [-53.158656878772625, 30.71017722891812]}}, {"type": "Feature", "properties": {"norad_id": 34614, "name": "COSMOS 2251 DEB", "group": "cosmos-2251-debris", "lat": -71.95494864002733, "lon": -60.41116858719325, "alt_km": 814.4335512550942, "timestamp": "2025-12-02T13:52:17.656082+00:00", "meta": {"OBJECT_NAME": "COSMOS 2251 DEB", "OBJECT_ID": "1993-036WK", "EPOCH": "2025-12-01T02:57:24.830784", "MEAN_MOTION": 14.17031843, "ECCENTRICITY": 0.01960492, "INCLINATION": 73.8807, "RA_OF_ASC_NODE": 4.7818, "ARG_OF_PERICENTER": 0.8812, "MEAN_ANOMALY": 61.0793, "EPHEMERIS_TYPE": 0, "CLASSIFICATION_TYPE": "U", "NORAD_CAT_ID": 34614, "ELEMENT_SET_NO": 999, "REV_AT_EPOCH": 84602, "BSTAR": 0.0044777238, "MEAN_MOTION_DOT": 0.00010861, "MEAN_MOTION_DDOT": 0}, "tle": {"line1": "1 34614U 93036WK  25335.12320406  .00010861  00000+0  44777-2 0  9991", "line2": "2 34614  73.8807   4.7818 0196049   0.8812  61.0793 14.17031843846027"}}, "geometry": {"type": "Point", "coordinates": [-60.41116858719325, -71.95494864002733]}}, {"type": "Feature", "properties": {"norad_id": 34615, "name": "COSMOS 2251 DEB", "group": "cosmos-2251-debris", "lat": 31.710952792557286, "lon": -39.351646011247134, "alt_km": 1359.3341762229138, "timestamp": "2025-12-02T13:52:17.656092+00:00", "meta": {"OBJECT_NAME": "COSMOS 2251 DEB", "OBJECT_ID": "1993-036WL", "EPOCH": "2025-12-01T17:17:48.208704", "MEAN_MOTION": 13.52196517, "ECCENTRICITY": 0.04023715, "INCLINATION": 74.0055, "RA_OF_ASC_NODE": 311.8151, "ARG_OF_PERICENTER": 221.3257, "MEAN_ANOMALY": 319.7339, "EPHEMERIS_TYPE": 0, "CLASSIFICATION_TYPE": "U", "NORAD_CAT_ID": 34615, "ELEMENT_SET_NO": 999, "REV_AT_EPOCH": 82666, "BSTAR": 4.7217708e-05, "MEAN_MOTION_DOT": 2.9e-07, "MEAN_MOTION_DDOT": 0}, "tle": {"line1": "1 34615U 93036WL  25335.72069686  .00000029  00000+0  47218-4 0  9998", "line2": "2 34615  74.0055 311.8151 0402371 221.3257 319.7339 13.52196517826664"}}, "geometry": {"type": "Point", "coordinates": [-39.351646011247134, 31.710952792557286]}}, {"type": "Feature", "properties": {"norad_id": 34619, "name": "COSMOS 2251 DEB", "group": "cosmos-2251-debris", "lat": 27.14521759492935, "lon": 31.03056106827966, "alt_km": 741.3815360040126, "timestamp": "2025-12-02T13:52:17.656103+00:00", "meta": {"OBJECT_NAME": "COSMOS 2251 DEB", "OBJECT_ID": "1993-036WQ", "EPOCH": "2025-12-02T01:42:06.626592", "MEAN_MOTION": 14.64598628, "ECCENTRICITY": 0.0094551, "INCLINATION": 74.0445, "RA_OF_ASC_NODE": 220.4395, "ARG_OF_PERICENTER": 317.7553, "MEAN_ANOMALY": 41.6356, "EPHEMERIS_TYPE": 0, "CLASSIFICATION_TYPE": "U", "NORAD_CAT_ID": 34619, "ELEMENT_SET_NO": 999, "REV_AT_EPOCH": 89142, "BSTAR": 0.00028122278, "MEAN_MOTION_DOT": 1.56e-05, "MEAN_MOTION_DDOT": 0}, "tle": {"line1": "1 34619U 93036WQ  25336.07091003  .00001560  00000+0  28122-3 0  9992", "line2": "2 34619  74.0445 220.4395 0094551 317.7553  41.6356 14.64598628891421"}}, "geometry": {"type": "Point", "coordinates": [31.03056106827966, 27.14521759492935]}}, {"type": "Feature", "properties": {"norad_id": 34620, "name": "COSMOS 2251 DEB", "group": "cosmos-2251-debris", "lat": -57.75025168788222, "lon": 85.51582224373104, "alt_km": 688.7966561525518, "timestamp": "2025-12-02T13:52:17.656113+00:00", "meta": {"OBJECT_NAME": "COSMOS 2251 DEB", "OBJECT_ID": "1993-036WR", "EPOCH": "2025-12-02T02:48:36.233856", "MEAN_MOTION": 14.48789388, "ECCENTRICITY": 0.00820729, "INCLINATION": 74.0521, "RA_OF_ASC_NODE": 239.429, "ARG_OF_PERICENTER": 278.2471, "MEAN_ANOMALY": 80.9388, "EPHEMERIS_TYPE": 0, "CLASSIFICATION_TYPE": "U", "NORAD_CAT_ID": 34620, "ELEMENT_SET_NO": 999, "REV_AT_EPOCH": 86673, "BSTAR": 0.0027614054, "MEAN_MOTION_DOT": 0.00010869, "MEAN_MOTION_DDOT": 0}, "tle": {"line1": "1 34620U 93036WR  25336.11708604  .00010869  00000+0  27614-2 0  9997", "line2": "2 34620  74.0521 239.4290 0082072 278.2471  80.9388 14.48789388866731"}}, "geometry": {"type": "Point", "coordinates": [85.51582224373104, -57.75025168788222]}}, {"type": "Feature", "properties": {"norad_id": 34622, "name": "COSMOS 2251 DEB", "group": "cosmos-2251-debris", "lat": 32.655179442694326, "lon": 134.6769034630524, "alt_km": 822.7182776993695, "timestamp": "2025-12-02T13:52:17.656123+00:00", "meta": {"OBJECT_NAME": "COSMOS 2251 DEB", "OBJECT_ID": "1993-036WT", "EPOCH": "2025-12-01T23:50:38.063904", "MEAN_MOTION": 14.21969293, "ECCENTRICITY": 0.01038806, "INCLINATION": 74.0412, "RA_OF_ASC_NODE": 326.2923, "ARG_OF_PERICENTER": 51.4861, "MEAN_ANOMALY": 342.2462, "EPHEMERIS_TYPE": 0, "CLASSIFICATION_TYPE": "U", "NORAD_CAT_ID": 34622, "ELEMENT_SET_NO": 999, "REV_AT_EPOCH": 86307, "BSTAR": 0.0010275914, "MEAN_MOTION_DOT": 2.373e-05, "MEAN_MOTION_DDOT": 0}, "tle": {"line1": "1 34622U 93036WT  25335.99349611  .00002373  00000+0  10276-2 0  9990", "line2": "2 34622  74.0412 326.2923 0103880  51.4861 342.2462 14.21969293863072"}}, "geometry": {"type": "Point", "coordinates": [134.6769034630524, 32.655179442694326]}}]}